{"type": "FeatureCollection", "features": [ {"type": "Feature", "properties": {"norad_id": 34001, "name": "COSMOS 2251 DEB", "group": "cosmos-2251-debris", "lat": 70.69154852609547, "lon": -25.405825505224318, "alt_km": 758.0457800812019, "timestamp": "2025-12-13T16:48:33.103261+00:00", "meta": {"OBJECT_NAME": "COSMOS 2251 DEB", "OBJECT_ID": "1993-036GL", "EPOCH": "2025-12-12T06:03:30.898944", "MEAN_MOTION": 14.37097701, "ECCENTRICITY": 0.00199285, "INCLINATION": 74.0388, "RA_OF_ASC_NODE": 282.4832, "ARG_OF_PERICENTER": 3.5131, "MEAN_ANOMALY": 147.2925, "EPHEMERIS_TYPE": 0, "CLASSIFICATION_TYPE": "U", "NORAD_CAT_ID": 34001, "ELEMENT_SET_NO": 999, "REV_AT_EPOCH": 88139, "BSTAR": 0.00033860249, "MEAN_MOTION_DOT": 9.82e-06, "MEAN_MOTION_DDOT": 0}, "tle": {"line1": "1 34001U 93036GL  25346.25244096  .00000982  00000+0  33860-3 0  9992", "line2": "2 34001  74.0388 282.4832 0019928   3.5131 147.2925 14.37097701881399"}}, "geometry": {"type": "Point", "coordinates": [-25.405825505224318, 70.69154852609547]}}, {"type": "Feature", "properties": {"norad_id": 34003, "name": "COSMOS 2251 DEB", "group": "cosmos-2251-debris", "lat": 32.332000225779645, "lon": 93.1190987705084, "alt_km": 1013.3490686431742, "timestamp": "2025-12-13T16:48:33.103271+00:00", "meta": {"OBJECT_NAME": "COSMOS 2251 DEB", "OBJECT_ID": "1993-036GN", "EPOCH": "2025-12-12T05:26:15.277344", "MEAN_MOTION": 13.84147254, "ECCENTRICITY": 0.0274236, "INCLINATION": 74.078, "RA_OF_ASC_NODE": 286.0079, "ARG_OF_PERICENTER": 38.1447, "MEAN_ANOMALY": 323.8739, "EPHEMERIS_TYPE": 0, "CLASSIFICATION_TYPE": "U", "NORAD_CAT_ID": 34003, "ELEMENT_SET_NO": 999, "REV_AT_EPOCH": 84418, "BSTAR": 0.0032157, "MEAN_MOTION_DOT": 4.774e-05, "MEAN_MOTION_DDOT": 0}, "tle": {"line1": "1 34003U 93036GN  25346.22656571  .00004774  00000+0  32157-2 0  9996", "line2": "2 34003  74.0780 286.0079 0274236  38.1447 323.8739 13.84147254844180"}}, "geometry": {"type": "Point", "coordinates": [93.1190987705084, 32.332000225779645]}}, {"type": "Feature", "properties": {"norad_id": 34004, "name": "COSMOS 2251 DEB", "group": "cosmos-2251-debris", "lat": 5.808851542353773, "lon": -47.022173518887755, "alt_km": 713.2532957157546, "timestamp": "2025-12-13T16:48:33.103281+00:00", "meta": {"OBJECT_NAME": "COSMOS 2251 DEB", "OBJECT_ID": "1993-036GP", "EPOCH": "2025-12-12T22:33:17.795520", "MEAN_MOTION": 14.49014166, "ECCENTRICITY": 0.0033383, "INCLINATION": 74.0357, "RA_OF_ASC_NODE": 312.7345, "ARG_OF_PERICENTER": 324.8699, "MEAN_ANOMALY": 35.0259, "EPHEMERIS_TYPE": 0, "CLASSIFICATION_TYPE": "U", "NORAD_CAT_ID": 34004, "ELEMENT_SET_NO": 999, "REV_AT_EPOCH": 88033, "BSTAR": 0.0020014367, "MEAN_MOTION_DOT": 7.627e-05, "MEAN_MOTION_DDOT": 0}, "tle": {"line1": "1 34004U 93036GP  25346.93978930  .00007627  00000+0  20014-2 0  9990", "line2": "2 34004  74.0357 312.7345 0033383 324.8699  35.0259 14.49014166880337"}}, "geometry": {"type": "Point", "coordinates": [-47.022173518887755, 5.808851542353773]}}, {"type": "Feature", "properties": {"norad_id": 34005, "name": "COSMOS 2251 DEB", "group": "cosmos-2251-debris", "lat": -64.06292108963807, "lon": 67.90376839452296, "alt_km": 761.8706744945966, "timestamp": "2025-12-13T16:48:33.103292+00:00", "meta": {"OBJECT_NAME": "COSMOS 2251 DEB", "OBJECT_ID": "1993-036GQ", "EPOCH": "2025-12-12T23:16:26.178816", "MEAN_MOTION": 14.4030454, "ECCENTRICITY": 0.00208555, "INCLINATION": 74.0443, "RA_OF_ASC_NODE": 213.2225, "ARG_OF_PERICENTER": 331.3174, "MEAN_ANOMALY": 91.2721, "EPHEMERIS_TYPE": 0, "CLASSIFICATION_TYPE": "U", "NORAD_CAT_ID": 34005, "ELEMENT_SET_NO": 999, "REV_AT_EPOCH": 88382, "BSTAR": 0.00015530879, "MEAN_MOTION_DOT": 4.67e-06, "MEAN_MOTION_DDOT": 0}, "tle": {"line1": "1 34005U 93036GQ  25346.96974744  .00000467  00000+0  15531-3 0  9997", "line2": "2 34005  74.0443 213.2225 0020855 331.3174  91.2721 14.40304540883821"}}, "geometry": {"type": "Point", "coordinates": [67.90376839452296, -64.06292108963807]}}, {"type": "Feature", "properties": {"norad_id": 34006, "name": "COSMOS 2251 DEB", "group": "cosmos-2251-debris", "lat": -16.58193728594323, "lon": 136.46774014140658, "alt_km": 589.2456683188457, "timestamp": "2025-12-13T16:48:33.103302+00:00", "meta": {"OBJECT_NAME": "COSMOS 2251 DEB", "OBJECT_ID": "1993-036GR", "EPOCH": "2025-12-12T12:13:34.301856", "MEAN_MOTION": 14.94733117, "ECCENTRICITY": 0.00115058, "INCLINATION": 74.0534, "RA_OF_ASC_NODE": 143.7492, "ARG_OF_PERICENTER": 89.3897, "MEAN_ANOMALY": 327.4283, "EPHEMERIS_TYPE": 0, "CLASSIFICATION_TYPE": "U", "NORAD_CAT_ID": 34006, "ELEMENT_SET_NO": 999, "REV_AT_EPOCH": 88665, "BSTAR": 0.0051825966, "MEAN_MOTION_DOT": 0.00056797, "MEAN_MOTION_DDOT": 0}, "tle": {"line1": "1 34006U 93036GR  25346.50942479  .00056797  00000+0  51826-2 0  9991", "line2": "2 34006  74.0534 143.7492 0011505  89.3897 327.4283 14.94733117886656"}}, "geometry": {"type": "Point", "coordinates": [136.46774014140658, -16.58193728594323]}}, {"type": "Feature", "properties": {"norad_id": 34007, "name": "COSMOS 2251 DEB", "group": "cosmos-2251-debris", "lat": 2.528663889957194, "lon": 164.32291765803018, "alt_km": 663.1375030156787, "timestamp": "2025-12-13T16:48:33.103312+00:00", "meta": {"OBJECT_NAME": "COSMOS 2251 DEB", "OBJECT_ID": "1993-036GS", "EPOCH": "2025-12-12T23:36:54.986400", "MEAN_MOTION": 14.64789734, "ECCENTRICITY": 0.00443028, "INCLINATION": 74.0196, "RA_OF_ASC_NODE": 346.4264, "ARG_OF_PERICENTER": 121.3111, "MEAN_ANOMALY": 239.2406, "EPHEMERIS_TYPE": 0, "CLASSIFICATION_TYPE": "U", "NORAD_CAT_ID": 34007, "ELEMENT_SET_NO": 999, "REV_AT_EPOCH": 89083, "BSTAR": 0.001047517, "MEAN_MOTION_DOT": 5.641e-05, "MEAN_MOTION_DDOT": 0}, "tle": {"line1": "1 34007U 93036GS  25346.98396975  .00005641  00000+0  10475-2 0  9995", "line2": "2 34007  74.0196 346.4264 0044302 121.3111 239.2406 14.64789734890832"}}, "geometry": {"type": "Point", "coordinates": [164.32291765803018, 2.528663889957194]}}, {"type": "Feature", "properties": {"norad_id": 34008, "name": "COSMOS 2251 DEB", "group": "cosmos-2251-debris", "lat": 45.874952386905726, "lon": 131.59570677374833, "alt_km": 793.9081512883758, "timestamp": "2025-12-13T16:48:33.103322+00:00", "meta": {"OBJECT_NAME": "COSMOS 2251 DEB", "OBJECT_ID": "1993-036GT", "EPOCH": "2025-12-12T23:44:24.033120", "MEAN_MOTION": 14.33146609, "ECCENTRICITY": 0.00243198, "INCLINATION": 74.0342, "RA_OF_ASC_NODE": 330.0623, "ARG_OF_PERICENTER": 325.2303, "MEAN_ANOMALY": 98.4121, "EPHEMERIS_TYPE": 0, "CLASSIFICATION_TYPE": "U", "NORAD_CAT_ID": 34008, "ELEMENT_SET_NO": 999, "REV_AT_EPOCH": 87968, "BSTAR": 0.00019457143, "MEAN_MOTION_DOT": 5.1e-06, "MEAN_MOTION_DDOT": 0}, "tle": {"line1": "1 34008U 93036GT  25346.98916705  .00000510  00000+0  19457-3 0  9995", "line2": "2 34008  74.0342 330.0623 0024319 325.2303  98.4121 14.33146609879681"}}, "geometry": {"type": "Point", "coordinates": [131.59570677374833, 45.874952386905726]}}, {"type": "Feature", "properties": {"norad_id": 34009, "name": "COSMOS 2251 DEB", "group": "cosmos-2251-debris", "lat": 11.389205741666954, "lon": 151.87627962996183, "alt_km": 792.4172946835888, "timestamp": "2025-12-13T16:48:33.103332+00:00", "meta": {"OBJECT_NAME": "COSMOS 2251 DEB", "OBJECT_ID": "1993-036GU", "EPOCH": "2025-12-12T17:24:00.311040", "MEAN_MOTION": 14.33222203, "ECCENTRICITY": 0.00265022, "INCLINATION": 74.037, "RA_OF_ASC_NODE": 336.9634, "ARG_OF_PERICENTER": 46.5857, "MEAN_ANOMALY": 130.6458, "EPHEMERIS_TYPE": 0, "CLASSIFICATION_TYPE": "U", "NORAD_CAT_ID": 34009, "ELEMENT_SET_NO": 999, "REV_AT_EPOCH": 87945, "BSTAR": 0.00022367551, "MEAN_MOTION_DOT": 5.91e-06, "MEAN_MOTION_DDOT": 0}, "tle": {"line1": "1 34009U 93036GU  25346.72500360  .00000591  00000+0  22368-3 0  9998", "line2": "2 34009  74.0370 336.9634 0026502  46.5857 130.6458 14.33222203879455"}}, "geometry": {"type": "Point", "coordinates": [151.87627962996183, 11.389205741666954]}}, {"type": "Feature", "properties": {"norad_id": 34010, "name": "COSMOS 2251 DEB", "group": "cosmos-2251-debris", "lat": -23.72933708934702, "lon": -85.95174262711065, "alt_km": 514.3026405328528, "timestamp": "2025-12-13T16:48:33.103342+00:00", "meta": {"OBJECT_NAME": "COSMOS 2251 DEB", "OBJECT_ID": "1993-036GV", "EPOCH": "2025-12-12T21:56:50.953632", "MEAN_MOTION": 15.18711854, "ECCENTRICITY": 0.00049122, "INCLINATION": 73.9977, "RA_OF_ASC_NODE": 282.9431, "ARG_OF_PERICENTER": 66.8529, "MEAN_ANOMALY": 293.3185, "EPHEMERIS_TYPE": 0, "CLASSIFICATION_TYPE": "U", "NORAD_CAT_ID": 34010, "ELEMENT_SET_NO": 999, "REV_AT_EPOCH": 89288, "BSTAR": 0.0060497945, "MEAN_MOTION_DOT": 0.00127835, "MEAN_MOTION_DDOT": 0}, "tle": {"line1": "1 34010U 93036GV  25346.91447863  .00127835  00000+0  60498-2 0  9995", "line2": "2 34010  73.9977 282.9431 0004912  66.8529 293.3185 15.18711854892880"}}, "geometry": {"type": "Point", "coordinates": [-85.95174262711065, -23.72933708934702]}}, {"type": "Feature", "properties": {"norad_id": 34011, "name": "COSMOS 2251 DEB", "group": "cosmos-2251-debris", "lat": -21.994329890500804, "lon": 155.01694633566322, "alt_km": 779.7841049802464, "timestamp": "2025-12-13T16:48:33.103352+00:00", "meta": {"OBJECT_NAME": "COSMOS 2251 DEB", "OBJECT_ID": "1993-036GW", "EPOCH": "2025-12-11T23:54:25.193088", "MEAN_MOTION": 14.4176453, "ECCENTRICITY": 0.0035537, "INCLINATION": 74.0154, "RA_OF_ASC_NODE": 331.5293, "ARG_OF_PERICENTER": 55.2711, "MEAN_ANOMALY": 305.1783, "EPHEMERIS_TYPE": 0, "CLASSIFICATION_TYPE": "U", "NORAD_CAT_ID": 34011, "ELEMENT_SET_NO": 999, "REV_AT_EPOCH": 87905, "BSTAR": 0.0012457, "MEAN_MOTION_DOT": 4.074e-05, "MEAN_MOTION_DDOT": 0}, "tle": {"line1": "1 34011U 93036GW  25345.99612492  .00004074  00000+0  12457-2 0  9996", "line2": "2 34011  74.0154 331.5293 0035537  55.2711 305.1783 14.41764530879053"}}, "geometry": {"type": "Point", "coordinates": [155.01694633566322, -21.994329890500804]}}]}